[{"OBJECT_NAME":"IRIDIUM 170","OBJECT_ID":"2019-002J","EPOCH":"2026-03-09T22:22:31.188288","MEAN_MOTION":14.72262238,"ECCENTRICITY":0.00027319,"INCLINATION":86.6095,"RA_OF_ASC_NODE":35.0236,"ARG_OF_PERICENTER":88.7648,"MEAN_ANOMALY":271.3882,"EPHEMERIS_TYPE":0,"CLASSIFICATION_TYPE":"U","NORAD_CAT_ID":43930,"ELEMENT_SET_NO":999,"REV_AT_EPOCH":38465,"BSTAR":0.00020964732,"MEAN_MOTION_DOT":1.347e-5,"MEAN_MOTION_DDOT":0},{"OBJECT_NAME":"PUNCH-WFI 2 (SMEX 15C)","OBJECT_ID":"2025-047D","EPOCH":"2026-03-09T22:37:47.775648","MEAN_MOTION":14.74227311,"ECCENTRICITY":0.00102861,"INCLINATION":97.9559,"RA_OF_ASC_NODE":255.8558,"ARG_OF_PERICENTER":135.6777,"MEAN_ANOMALY":224.5257,"EPHEMERIS_TYPE":0,"CLASSIFICATION_TYPE":"U","NORAD_CAT_ID":63181,"ELEMENT_SET_NO":999,"REV_AT_EPOCH":5343,"BSTAR":0.00015546473,"MEAN_MOTION_DOT":9.78e-6,"MEAN_MOTION_DDOT":0}]
